{"type": "FeatureCollection", "features": [ {"type": "Feature", "properties": {"norad_id": 66613, "name": "STARLINK-36037", "group": "last-30-days", "lat": -39.72436790274643, "lon": 151.55698789989123, "alt_km": 395.1149153815959, "timestamp": "2025-12-08T23:34:02.740565+00:00", "meta": {"OBJECT_NAME": "STARLINK-36037", "OBJECT_ID": "2025-270AB", "EPOCH": "2025-12-08T14:00:01.999872", "MEAN_MOTION": 15.59921885, "ECCENTRICITY": 0.00013519, "INCLINATION": 42.9992, "RA_OF_ASC_NODE": 217.0111, "ARG_OF_PERICENTER": 250.0541, "MEAN_ANOMALY": 320.3408, "EPHEMERIS_TYPE": 0, "CLASSIFICATION_TYPE": "U", "NORAD_CAT_ID": 66613, "ELEMENT_SET_NO": 999, "REV_AT_EPOCH": 373, "BSTAR": -0.026866009, "MEAN_MOTION_DOT": -0.01958748, "MEAN_MOTION_DDOT": 0}, "tle": {"line1": "1 66613U 25270AB  25342.58335648 -.01958748  00000+0 -26866-1 0  9998", "line2": "2 66613  42.9992 217.0111 0001351 250.0541 320.3408 15.59921885  3735"}}, "geometry": {"type": "Point", "coordinates": [151.55698789989123, -39.72436790274643]}}, {"type": "Feature", "properties": {"norad_id": 66614, "name": "STARLINK-36040", "group": "last-30-days", "lat": -38.44923549447469, "lon": 156.19972851255386, "alt_km": 395.0489674019709, "timestamp": "2025-12-08T23:34:02.740580+00:00", "meta": {"OBJECT_NAME": "STARLINK-36040", "OBJECT_ID": "2025-270AC", "EPOCH": "2025-12-08T14:00:01.999872", "MEAN_MOTION": 15.5992986, "ECCENTRICITY": 0.00013515, "INCLINATION": 42.9992, "RA_OF_ASC_NODE": 217.0012, "ARG_OF_PERICENTER": 254.1086, "MEAN_ANOMALY": 320.1172, "EPHEMERIS_TYPE": 0, "CLASSIFICATION_TYPE": "U", "NORAD_CAT_ID": 66614, "ELEMENT_SET_NO": 999, "REV_AT_EPOCH": 357, "BSTAR": -0.027017395, "MEAN_MOTION_DOT": -0.01968972, "MEAN_MOTION_DDOT": 0}, "tle": {"line1": "1 66614U 25270AC  25342.58335648 -.01968972  00000+0 -27017-1 0  9998", "line2": "2 66614  42.9992 217.0012 0001351 254.1086 320.1172 15.59929860  3574"}}, "geometry": {"type": "Point", "coordinates": [156.19972851255386, -38.44923549447469]}}, {"type": "Feature", "properties": {"norad_id": 66615, "name": "STARLINK-35988", "group": "last-30-days", "lat": -39.10968726538625, "lon": 153.89983452104659, "alt_km": 395.03777649784297, "timestamp": "2025-12-08T23:34:02.740591+00:00", "meta": {"OBJECT_NAME": "STARLINK-35988", "OBJECT_ID": "2025-270AD", "EPOCH": "2025-12-08T14:00:01.999872", "MEAN_MOTION": 15.59927711, "ECCENTRICITY": 0.00014329, "INCLINATION": 42.9991, "RA_OF_ASC_NODE": 217.0061, "ARG_OF_PERICENTER": 252.2069, "MEAN_ANOMALY": 320.1026, "EPHEMERIS_TYPE": 0, "CLASSIFICATION_TYPE": "U", "NORAD_CAT_ID": 66615, "ELEMENT_SET_NO": 999, "REV_AT_EPOCH": 357, "BSTAR": -0.026980793, "MEAN_MOTION_DOT": -0.01966544, "MEAN_MOTION_DDOT": 0}, "tle": {"line1": "1 66615U 25270AD  25342.58335648 -.01966544  00000+0 -26981-1 0  9991", "line2": "2 66615  42.9991 217.0061 0001432 252.2069 320.1026 15.59927711  3579"}}, "geometry": {"type": "Point", "coordinates": [153.89983452104659, -39.10968726538625]}}, {"type": "Feature", "properties": {"norad_id": 66616, "name": "STARLINK-35391", "group": "last-30-days", "lat": -37.74408675689268, "lon": 158.45721034435465, "alt_km": 395.0041677045401, "timestamp": "2025-12-08T23:34:02.740601+00:00", "meta": {"OBJECT_NAME": "STARLINK-35391", "OBJECT_ID": "2025-270AE", "EPOCH": "2025-12-08T14:00:01.999872", "MEAN_MOTION": 15.59929766, "ECCENTRICITY": 0.00014045, "INCLINATION": 42.9991, "RA_OF_ASC_NODE": 216.9965, "ARG_OF_PERICENTER": 254.3335, "MEAN_ANOMALY": 321.8083, "EPHEMERIS_TYPE": 0, "CLASSIFICATION_TYPE": "U", "NORAD_CAT_ID": 66616, "ELEMENT_SET_NO": 999, "REV_AT_EPOCH": 384, "BSTAR": -0.026998447, "MEAN_MOTION_DOT": -0.01967791, "MEAN_MOTION_DDOT": 0}, "tle": {"line1": "1 66616U 25270AE  25342.58335648 -.01967791  00000+0 -26998-1 0  9995", "line2": "2 66616  42.9991 216.9965 0001404 254.3335 321.8083 15.59929766  3842"}}, "geometry": {"type": "Point", "coordinates": [158.45721034435465, -37.74408675689268]}}, {"type": "Feature", "properties": {"norad_id": 66617, "name": "STARLINK-35940", "group": "last-30-days", "lat": -43.21060969190386, "lon": 70.21033287406297, "alt_km": 374.5447797675861, "timestamp": "2025-12-08T23:34:02.740613+00:00", "meta": {"OBJECT_NAME": "STARLINK-35940", "OBJECT_ID": "2025-271A", "EPOCH": "2025-12-08T14:00:01.999872", "MEAN_MOTION": 15.67995771, "ECCENTRICITY": 0.00012016, "INCLINATION": 53.1595, "RA_OF_ASC_NODE": 207.3941, "ARG_OF_PERICENTER": 96.2789, "MEAN_ANOMALY": 52.2964, "EPHEMERIS_TYPE": 0, "CLASSIFICATION_TYPE": "U", "NORAD_CAT_ID": 66617, "ELEMENT_SET_NO": 999, "REV_AT_EPOCH": 357, "BSTAR": -0.019350136, "MEAN_MOTION_DOT": -0.01933707, "MEAN_MOTION_DDOT": 0}, "tle": {"line1": "1 66617U 25271A   25342.58335648 -.01933707  00000+0 -19350-1 0  9991", "line2": "2 66617  53.1595 207.3941 0001201  96.2789  52.2964 15.67995771  3577"}}, "geometry": {"type": "Point", "coordinates": [70.21033287406297, -43.21060969190386]}}, {"type": "Feature", "properties": {"norad_id": 66618, "name": "STARLINK-35970", "group": "last-30-days", "lat": -47.86247655575466, "lon": 149.36110609896542, "alt_km": 374.84566218014606, "timestamp": "2025-12-08T23:34:02.740627+00:00", "meta": {"OBJECT_NAME": "STARLINK-35970", "OBJECT_ID": "2025-271B", "EPOCH": "2025-12-08T14:00:01.999872", "MEAN_MOTION": 15.67984511, "ECCENTRICITY": 0.00011347, "INCLINATION": 53.1593, "RA_OF_ASC_NODE": 207.2816, "ARG_OF_PERICENTER": 116.3104, "MEAN_ANOMALY": 85.595, "EPHEMERIS_TYPE": 0, "CLASSIFICATION_TYPE": "U", "NORAD_CAT_ID": 66618, "ELEMENT_SET_NO": 999, "REV_AT_EPOCH": 357, "BSTAR": -0.019226811, "MEAN_MOTION_DOT": -0.01921961, "MEAN_MOTION_DDOT": 0}, "tle": {"line1": "1 66618U 25271B   25342.58335648 -.01921961  00000+0 -19227-1 0  9994", "line2": "2 66618  53.1593 207.2816 0001134 116.3104  85.5950 15.67984511  3570"}}, "geometry": {"type": "Point", "coordinates": [149.36110609896542, -47.86247655575466]}}, {"type": "Feature", "properties": {"norad_id": 66619, "name": "STARLINK-35951", "group": "last-30-days", "lat": -47.198695787675085, "lon": 79.47820001803467, "alt_km": 374.64169606873565, "timestamp": "2025-12-08T23:34:02.740638+00:00", "meta": {"OBJECT_NAME": "STARLINK-35951", "OBJECT_ID": "2025-271C", "EPOCH": "2025-12-08T14:00:01.999872", "MEAN_MOTION": 15.6798327, "ECCENTRICITY": 0.00011634, "INCLINATION": 53.1591, "RA_OF_ASC_NODE": 207.3772, "ARG_OF_PERICENTER": 109.4159, "MEAN_ANOMALY": 46.8338, "EPHEMERIS_TYPE": 0, "CLASSIFICATION_TYPE": "U", "NORAD_CAT_ID": 66619, "ELEMENT_SET_NO": 999, "REV_AT_EPOCH": 357, "BSTAR": -0.019198371, "MEAN_MOTION_DOT": -0.01919379, "MEAN_MOTION_DDOT": 0}, "tle": {"line1": "1 66619U 25271C   25342.58335648 -.01919379  00000+0 -19198-1 0  9992", "line2": "2 66619  53.1591 207.3772 0001163 109.4159  46.8338 15.67983270  3577"}}, "geometry": {"type": "Point", "coordinates": [79.47820001803467, -47.198695787675085]}}, {"type": "Feature", "properties": {"norad_id": 66620, "name": "STARLINK-35936", "group": "last-30-days", "lat": -44.27568157460338, "lon": 72.403847302738, "alt_km": 374.48774154580406, "timestamp": "2025-12-08T23:34:02.740648+00:00", "meta": {"OBJECT_NAME": "STARLINK-35936", "OBJECT_ID": "2025-271D", "EPOCH": "2025-12-08T14:00:01.999872", "MEAN_MOTION": 15.67985501, "ECCENTRICITY": 0.00010521, "INCLINATION": 53.1595, "RA_OF_ASC_NODE": 207.3898, "ARG_OF_PERICENTER": 101.0291, "MEAN_ANOMALY": 49.4683, "EPHEMERIS_TYPE": 0, "CLASSIFICATION_TYPE": "U", "NORAD_CAT_ID": 66620, "ELEMENT_SET_NO": 999, "REV_AT_EPOCH": 357, "BSTAR": -0.019223436, "MEAN_MOTION_DOT": -0.01921674, "MEAN_MOTION_DDOT": 0}, "tle": {"line1": "1 66620U 25271D   25342.58335648 -.01921674  00000+0 -19223-1 0  9994", "line2": "2 66620  53.1595 207.3898 0001052 101.0291  49.4683 15.67985501  3575"}}, "geometry": {"type": "Point", "coordinates": [72.403847302738, -44.27568157460338]}}, {"type": "Feature", "properties": {"norad_id": 66621, "name": "STARLINK-35847", "group": "last-30-days", "lat": -46.18849771173267, "lon": 153.9164383596896, "alt_km": 374.8364927171924, "timestamp": "2025-12-08T23:34:02.740657+00:00", "meta": {"OBJECT_NAME": "STARLINK-35847", "OBJECT_ID": "2025-271E", "EPOCH": "2025-12-08T14:00:01.999872", "MEAN_MOTION": 15.67985539, "ECCENTRICITY": 0.00012058, "INCLINATION": 53.1594, "RA_OF_ASC_NODE": 207.2738, "ARG_OF_PERICENTER": 115.1324, "MEAN_ANOMALY": 90.3112, "EPHEMERIS_TYPE": 0, "CLASSIFICATION_TYPE": "U", "NORAD_CAT_ID": 66621, "ELEMENT_SET_NO": 999, "REV_AT_EPOCH": 357, "BSTAR": -0.019240608, "MEAN_MOTION_DOT": -0.01923305, "MEAN_MOTION_DDOT": 0}, "tle": {"line1": "1 66621U 25271E   25342.58335648 -.01923305  00000+0 -19241-1 0  9998", "line2": "2 66621  53.1594 207.2738 0001205 115.1324  90.3112 15.67985539  3573"}}, "geometry": {"type": "Point", "coordinates": [153.9164383596896, -46.18849771173267]}}, {"type": "Feature", "properties": {"norad_id": 66622, "name": "STARLINK-35950", "group": "last-30-days", "lat": -48.06968928549413, "lon": 82.00123733486551, "alt_km": 374.7105990008631, "timestamp": "2025-12-08T23:34:02.740667+00:00", "meta": {"OBJECT_NAME": "STARLINK-35950", "OBJECT_ID": "2025-271F", "EPOCH": "2025-12-08T14:00:01.999872", "MEAN_MOTION": 15.67984619, "ECCENTRICITY": 0.00011392, "INCLINATION": 53.1596, "RA_OF_ASC_NODE": 207.3737, "ARG_OF_PERICENTER": 104.1335, "MEAN_ANOMALY": 54.0325, "EPHEMERIS_TYPE": 0, "CLASSIFICATION_TYPE": "U", "NORAD_CAT_ID": 66622, "ELEMENT_SET_NO": 999, "REV_AT_EPOCH": 357, "BSTAR": -0.019216065, "MEAN_MOTION_DOT": -0.01921021, "MEAN_MOTION_DDOT": 0}, "tle": {"line1": "1 66622U 25271F   25342.58335648 -.01921021  00000+0 -19216-1 0  9994", "line2": "2 66622  53.1596 207.3737 0001139 104.1335  54.0325 15.67984619  3573"}}, "geometry": {"type": "Point", "coordinates": [82.00123733486551, -48.06968928549413]}}]}